{
  "norad_id": 68486,
  "name": "VINDLER 2.3",
  "history": [
    {
      "epoch": "2026-04-15T20:48:48.372192Z",
      "apogee_km": 593.8357147018842,
      "perigee_km": 591.0028806225146,
      "latitude_deg": 4.8862256324382707e-05,
      "longitude_deg": -91.12109028002068,
      "height_km": 596.1344764941061,
      "semi_major_axis_km": 6970.556297662199,
      "eccentricity": 0.0002032,
      "inclination_deg": 97.7539,
      "raan_deg": 65.1036,
      "arg_perigee_deg": 118.5094,
      "mean_anomaly_deg": 241.633,
      "mean_motion_rev_day": 14.91769087
    },
    {
      "epoch": "2026-04-16T20:57:38.763648Z",
      "apogee_km": 593.8589968053566,
      "perigee_km": 590.9634310772853,
      "latitude_deg": -3.246065179988778e-05,
      "longitude_deg": -93.33363739429794,
      "height_km": 596.0783121801022,
      "semi_major_axis_km": 6970.548213941321,
      "eccentricity": 0.0002077,
      "inclination_deg": 97.7538,
      "raan_deg": 66.0927,
      "arg_perigee_deg": 115.7121,
      "mean_anomaly_deg": 244.4312,
      "mean_motion_rev_day": 14.91771682
    },
    {
      "epoch": "2026-04-17T21:06:29.074752Z",
      "apogee_km": 593.8824788628744,
      "perigee_km": 590.9271085531782,
      "latitude_deg": 3.888568786231012e-05,
      "longitude_deg": -95.54537012632835,
      "height_km": 596.0607424105982,
      "semi_major_axis_km": 6970.5417937080265,
      "eccentricity": 0.00021199,
      "inclination_deg": 97.754,
      "raan_deg": 67.0823,
      "arg_perigee_deg": 114.6832,
      "mean_anomaly_deg": 245.4608,
      "mean_motion_rev_day": 14.91773743
    },
    {
      "epoch": "2026-04-21T13:38:52.384704Z",
      "apogee_km": 593.9486149544318,
      "perigee_km": 590.8146697728243,
      "latitude_deg": 4.8316390524585295e-05,
      "longitude_deg": 16.350298248578294,
      "height_km": 595.9793316003247,
      "semi_major_axis_km": 6970.518642363628,
      "eccentricity": 0.0002248,
      "inclination_deg": 97.7543,
      "raan_deg": 70.7113,
      "arg_perigee_deg": 110.9056,
      "mean_anomaly_deg": 249.2404,
      "mean_motion_rev_day": 14.91781175
    },
    {
      "epoch": "2026-04-22T20:14:03.191136Z",
      "apogee_km": 593.9706479430679,
      "perigee_km": 590.7709060531142,
      "latitude_deg": 9.856207055936695e-05,
      "longitude_deg": -82.44717468287409,
      "height_km": 595.9394306462929,
      "semi_major_axis_km": 6970.507776998091,
      "eccentricity": 0.00022952,
      "inclination_deg": 97.7544,
      "raan_deg": 71.965,
      "arg_perigee_deg": 109.3552,
      "mean_anomaly_deg": 250.7916,
      "mean_motion_rev_day": 14.91784663
    },
    {
      "epoch": "2026-04-24T06:02:24.274176Z",
      "apogee_km": 594.0033910528155,
      "perigee_km": 590.7133172456579,
      "latitude_deg": 2.2441383144069994e-06,
      "longitude_deg": 130.4623327875393,
      "height_km": 595.887411356835,
      "semi_major_axis_km": 6970.495354149237,
      "eccentricity": 0.000236,
      "inclination_deg": 97.7545,
      "raan_deg": 73.3507,
      "arg_perigee_deg": 107.3581,
      "mean_anomaly_deg": 252.7896,
      "mean_motion_rev_day": 14.91788651
    },
    {
      "epoch": "2026-04-25T12:37:34.041216Z",
      "apogee_km": 593.9936047381234,
      "perigee_km": 590.6618620048666,
      "latitude_deg": 8.658990019979934e-06,
      "longitude_deg": 31.669310922214486,
      "height_km": 595.8075167987122,
      "semi_major_axis_km": 6970.464733371495,
      "eccentricity": 0.00023899,
      "inclination_deg": 97.7547,
      "raan_deg": 74.6045,
      "arg_perigee_deg": 105.3724,
      "mean_anomaly_deg": 254.7759,
      "mean_motion_rev_day": 14.91798481
    },
    {
      "epoch": "2026-04-27T19:21:32.031936Z",
      "apogee_km": 594.0048523147489,
      "perigee_km": 590.6018833271792,
      "latitude_deg": -2.5550327540558475e-05,
      "longitude_deg": -69.32680645938854,
      "height_km": 595.7530515767603,
      "semi_major_axis_km": 6970.440367820964,
      "eccentricity": 0.0002441,
      "inclination_deg": 97.7543,
      "raan_deg": 76.8478,
      "arg_perigee_deg": 103.9992,
      "mean_anomaly_deg": 256.1498,
      "mean_motion_rev_day": 14.91806303
    },
    {
      "epoch": "2026-04-28T19:30:20.253024Z",
      "apogee_km": 594.0163189026562,
      "perigee_km": 590.5701381976605,
      "latitude_deg": -5.982351874026145e-05,
      "longitude_deg": -71.52959316748391,
      "height_km": 595.7254532932513,
      "semi_major_axis_km": 6970.430228550158,
      "eccentricity": 0.0002472,
      "inclination_deg": 97.7545,
      "raan_deg": 77.8376,
      "arg_perigee_deg": 103.2254,
      "mean_anomaly_deg": 256.924,
      "mean_motion_rev_day": 14.91809558
    },
    {
      "epoch": "2026-04-29T19:39:08.239104Z",
      "apogee_km": 594.0286828352655,
      "perigee_km": 590.529533948853,
      "latitude_deg": 3.158860860430373e-05,
      "longitude_deg": -73.73101541051314,
      "height_km": 595.6340339786337,
      "semi_major_axis_km": 6970.416108392059,
      "eccentricity": 0.000251,
      "inclination_deg": 97.7554,
      "raan_deg": 78.8278,
      "arg_perigee_deg": 100.4415,
      "mean_anomaly_deg": 259.7087,
      "mean_motion_rev_day": 14.91814091
    },
    {
      "epoch": "2026-04-30T13:21:35.340192Z",
      "apogee_km": 594.0335816551715,
      "perigee_km": 590.5151968023429,
      "latitude_deg": 3.116874937803858e-05,
      "longitude_deg": 20.654840894266247,
      "height_km": 595.6157099646533,
      "semi_major_axis_km": 6970.411389228757,
      "eccentricity": 0.00025238,
      "inclination_deg": 97.7555,
      "raan_deg": 79.5538,
      "arg_perigee_deg": 99.9348,
      "mean_anomaly_deg": 260.2156,
      "mean_motion_rev_day": 14.91815606
    },
    {
      "epoch": "2026-05-02T08:49:24.826944Z",
      "apogee_km": 594.0405714398867,
      "perigee_km": 590.4661552615589,
      "latitude_deg": -4.860984742796461e-05,
      "longitude_deg": 88.69566189451808,
      "height_km": 595.5514693935329,
      "semi_major_axis_km": 6970.3903633507225,
      "eccentricity": 0.0002564,
      "inclination_deg": 97.7556,
      "raan_deg": 81.3358,
      "arg_perigee_deg": 98.3772,
      "mean_anomaly_deg": 261.7737,
      "mean_motion_rev_day": 14.91822356
    },
    {
      "epoch": "2026-05-03T17:01:07.617216Z",
      "apogee_km": 594.02750191004,
      "perigee_km": 590.4447301284063,
      "latitude_deg": 6.57549454290091e-05,
      "longitude_deg": -34.23496062209182,
      "height_km": 595.4799628205284,
      "semi_major_axis_km": 6970.373116019223,
      "eccentricity": 0.000257,
      "inclination_deg": 97.7557,
      "raan_deg": 82.6557,
      "arg_perigee_deg": 96.6089,
      "mean_anomaly_deg": 263.5423,
      "mean_motion_rev_day": 14.91827893
    },
    {
      "epoch": "2026-05-04T18:46:29.570016Z",
      "apogee_km": 594.0282035215023,
      "perigee_km": 590.4217382377692,
      "latitude_deg": 4.001617403600685e-06,
      "longitude_deg": -60.57819128658481,
      "height_km": 595.4297886647815,
      "semi_major_axis_km": 6970.361970879635,
      "eccentricity": 0.0002587,
      "inclination_deg": 97.7557,
      "raan_deg": 83.7117,
      "arg_perigee_deg": 95.3196,
      "mean_anomaly_deg": 264.8318,
      "mean_motion_rev_day": 14.91831471
    },
    {
      "epoch": "2026-05-05T20:31:51.254112Z",
      "apogee_km": 594.0359004160855,
      "perigee_km": 590.3918009913368,
      "latitude_deg": -6.077059296258088e-05,
      "longitude_deg": -86.92019928275938,
      "height_km": 595.3769150825693,
      "semi_major_axis_km": 6970.35085070371,
      "eccentricity": 0.0002614,
      "inclination_deg": 97.7558,
      "raan_deg": 84.7678,
      "arg_perigee_deg": 93.949,
      "mean_anomaly_deg": 266.2027,
      "mean_motion_rev_day": 14.91835041
    },
    {
      "epoch": "2026-05-06T20:40:37.678944Z",
      "apogee_km": 594.0474247255652,
      "perigee_km": 590.3629018580496,
      "latitude_deg": -2.714906083656558e-05,
      "longitude_deg": -89.11539487382606,
      "height_km": 595.3328484557268,
      "semi_major_axis_km": 6970.342163291807,
      "eccentricity": 0.0002643,
      "inclination_deg": 97.7559,
      "raan_deg": 85.7577,
      "arg_perigee_deg": 92.8056,
      "mean_anomaly_deg": 267.3465,
      "mean_motion_rev_day": 14.9183783
    },
    {
      "epoch": "2026-05-07T19:12:48.913632Z",
      "apogee_km": 594.0529859324934,
      "perigee_km": 590.3433735498347,
      "latitude_deg": 4.6657161803794434e-05,
      "longitude_deg": -67.16375864846731,
      "height_km": 595.295414137271,
      "semi_major_axis_km": 6970.335179741164,
      "eccentricity": 0.0002661,
      "inclination_deg": 97.7559,
      "raan_deg": 86.6817,
      "arg_perigee_deg": 91.8468,
      "mean_anomaly_deg": 268.3056,
      "mean_motion_rev_day": 14.91840072
    },
    {
      "epoch": "2026-05-08T20:58:10.194240Z",
      "apogee_km": 594.0546342341358,
      "perigee_km": 590.3255092507534,
      "latitude_deg": -2.7726387952064644e-05,
      "longitude_deg": -93.50407861519783,
      "height_km": 595.2370196715028,
      "semi_major_axis_km": 6970.327071742444,
      "eccentricity": 0.0002675,
      "inclination_deg": 97.7559,
      "raan_deg": 87.7378,
      "arg_perigee_deg": 90.2923,
      "mean_anomaly_deg": 269.8602,
      "mean_motion_rev_day": 14.91842675
    },
    {
      "epoch": "2026-05-09T19:30:21.244032Z",
      "apogee_km": 594.0337700531909,
      "perigee_km": 590.3367111367797,
      "latitude_deg": -4.8070732222590536e-05,
      "longitude_deg": -71.55165578709251,
      "height_km": 595.1654196421207,
      "semi_major_axis_km": 6970.322240594985,
      "eccentricity": 0.0002652,
      "inclination_deg": 97.756,
      "raan_deg": 88.6618,
      "arg_perigee_deg": 88.224,
      "mean_anomaly_deg": 271.9282,
      "mean_motion_rev_day": 14.91844226
    },
    {
      "epoch": "2026-05-10T19:39:07.233408Z",
      "apogee_km": 594.0301732720709,
      "perigee_km": 590.3261477957631,
      "latitude_deg": 2.4478804856961228e-05,
      "longitude_deg": -73.74503463724811,
      "height_km": 595.1165177008803,
      "semi_major_axis_km": 6970.315160533917,
      "eccentricity": 0.0002657,
      "inclination_deg": 97.756,
      "raan_deg": 89.6517,
      "arg_perigee_deg": 86.933,
      "mean_anomaly_deg": 273.2193,
      "mean_motion_rev_day": 14.91846499
    },
    {
      "epoch": "2026-05-11T19:47:53.063808Z",
      "apogee_km": 594.0036274514114,
      "perigee_km": 590.3386394348463,
      "latitude_deg": -2.3318279760471832e-06,
      "longitude_deg": -75.93753489553991,
      "height_km": 595.0634720083984,
      "semi_major_axis_km": 6970.308133443128,
      "eccentricity": 0.0002629,
      "inclination_deg": 97.7561,
      "raan_deg": 90.6418,
      "arg_perigee_deg": 85.4565,
      "mean_anomaly_deg": 274.6954,
      "mean_motion_rev_day": 14.91848755
    },
    {
      "epoch": "2026-05-12T19:56:38.747328Z",
      "apogee_km": 594.0058108357125,
      "perigee_km": 590.3199162678657,
      "latitude_deg": 4.983254142373984e-05,
      "longitude_deg": -78.12913149235497,
      "height_km": 595.0375178295643,
      "semi_major_axis_km": 6970.299863551789,
      "eccentricity": 0.0002644,
      "inclination_deg": 97.7563,
      "raan_deg": 91.6322,
      "arg_perigee_deg": 84.9318,
      "mean_anomaly_deg": 275.2203,
      "mean_motion_rev_day": 14.9185141
    },
    {
      "epoch": "2026-05-13T10:25:54.107328Z",
      "apogee_km": 594.0086965099854,
      "perigee_km": 590.3088635099557,
      "latitude_deg": 5.823212734067907e-05,
      "longitude_deg": 64.55588315161148,
      "height_km": 595.0182244819975,
      "semi_major_axis_km": 6970.29578000997,
      "eccentricity": 0.0002654,
      "inclination_deg": 97.7563,
      "raan_deg": 92.2262,
      "arg_perigee_deg": 84.4784,
      "mean_anomaly_deg": 275.6738,
      "mean_motion_rev_day": 14.91852721
    }
  ]
}